{"type": "FeatureCollection", "features": [ {"type": "Feature", "properties": {"norad_id": 39620, "name": "COSMOS 2492 (754)", "group": "gnss", "lat": -33.980353609366375, "lon": 157.90310387717426, "alt_km": 19137.535804440948, "timestamp": "2025-12-22T05:49:03.741675+00:00", "meta": {"OBJECT_NAME": "COSMOS 2492 (754)", "OBJECT_ID": "2014-012A", "EPOCH": "2025-12-21T11:43:50.274048", "MEAN_MOTION": 2.13103403, "ECCENTRICITY": 0.0014252, "INCLINATION": 65.4028, "RA_OF_ASC_NODE": 319.9737, "ARG_OF_PERICENTER": 313.2084, "MEAN_ANOMALY": 46.666, "EPHEMERIS_TYPE": 0, "CLASSIFICATION_TYPE": "U", "NORAD_CAT_ID": 39620, "ELEMENT_SET_NO": 999, "REV_AT_EPOCH": 9145, "BSTAR": 0, "MEAN_MOTION_DOT": -4.5e-07, "MEAN_MOTION_DDOT": 0}, "tle": {"line1": "1 39620U 14012A   25355.48877632 -.00000045  00000+0  00000+0 0  9991", "line2": "2 39620  65.4028 319.9737 0014252 313.2084  46.6660  2.13103403 91455"}}, "geometry": {"type": "Point", "coordinates": [157.90310387717426, -33.980353609366375]}}, {"type": "Feature", "properties": {"norad_id": 39635, "name": "IRNSS-1B", "group": "gnss", "lat": -4.914633726306456, "lon": -125.3350535765638, "alt_km": 35865.096928262545, "timestamp": "2025-12-22T05:49:03.741686+00:00", "meta": {"OBJECT_NAME": "IRNSS-1B", "OBJECT_ID": "2014-017A", "EPOCH": "2025-12-21T18:32:21.878016", "MEAN_MOTION": 1.00271154, "ECCENTRICITY": 0.001853, "INCLINATION": 29.2394, "RA_OF_ASC_NODE": 243.439, "ARG_OF_PERICENTER": 175.0661, "MEAN_ANOMALY": 5.3106, "EPHEMERIS_TYPE": 0, "CLASSIFICATION_TYPE": "U", "NORAD_CAT_ID": 39635, "ELEMENT_SET_NO": 999, "REV_AT_EPOCH": 4301, "BSTAR": 0, "MEAN_MOTION_DOT": 1.51e-06, "MEAN_MOTION_DDOT": 0}, "tle": {"line1": "1 39635U 14017A   25355.77247544  .00000151  00000+0  00000+0 0  9994", "line2": "2 39635  29.2394 243.4390 0018530 175.0661   5.3106  1.00271154 43019"}}, "geometry": {"type": "Point", "coordinates": [-125.3350535765638, -4.914633726306456]}}, {"type": "Feature", "properties": {"norad_id": 39727, "name": "LUCH 5V (SDCM/PRN 141)", "group": "gnss", "lat": -1.7466073899393255, "lon": -87.0499494678052, "alt_km": 35769.87182488719, "timestamp": "2025-12-22T05:49:03.741698+00:00", "meta": {"OBJECT_NAME": "LUCH 5V (SDCM/PRN 141)", "OBJECT_ID": "2014-023A", "EPOCH": "2025-12-21T18:47:01.583808", "MEAN_MOTION": 1.00275749, "ECCENTRICITY": 0.0003704, "INCLINATION": 4.6915, "RA_OF_ASC_NODE": 71.4643, "ARG_OF_PERICENTER": 213.0633, "MEAN_ANOMALY": 182.53, "EPHEMERIS_TYPE": 0, "CLASSIFICATION_TYPE": "U", "NORAD_CAT_ID": 39727, "ELEMENT_SET_NO": 999, "REV_AT_EPOCH": 4258, "BSTAR": 0, "MEAN_MOTION_DOT": -2.5e-06, "MEAN_MOTION_DDOT": 0}, "tle": {"line1": "1 39727U 14023A   25355.78265722 -.00000250  00000+0  00000+0 0  9993", "line2": "2 39727   4.6915  71.4643 0003704 213.0633 182.5300  1.00275749 42585"}}, "geometry": {"type": "Point", "coordinates": [-87.0499494678052, -1.7466073899393255]}}, {"type": "Feature", "properties": {"norad_id": 39741, "name": "GPS BIIF-6  (PRN 06)", "group": "gnss", "lat": -15.08623304268771, "lon": 168.64393768623208, "alt_km": 20237.99681375463, "timestamp": "2025-12-22T05:49:03.741709+00:00", "meta": {"OBJECT_NAME": "GPS BIIF-6  (PRN 06)", "OBJECT_ID": "2014-026A", "EPOCH": "2025-12-18T23:24:45.525888", "MEAN_MOTION": 2.00561009, "ECCENTRICITY": 0.00393411, "INCLINATION": 56.5812, "RA_OF_ASC_NODE": 338.5339, "ARG_OF_PERICENTER": 319.0443, "MEAN_ANOMALY": 40.6665, "EPHEMERIS_TYPE": 0, "CLASSIFICATION_TYPE": "U", "NORAD_CAT_ID": 39741, "ELEMENT_SET_NO": 999, "REV_AT_EPOCH": 8492, "BSTAR": 0, "MEAN_MOTION_DOT": -8.1e-07, "MEAN_MOTION_DDOT": 0}, "tle": {"line1": "1 39741U 14026A   25352.97552692 -.00000081  00000+0  00000+0 0  9997", "line2": "2 39741  56.5812 338.5339 0039341 319.0443  40.6665  2.00561009 84924"}}, "geometry": {"type": "Point", "coordinates": [168.64393768623208, -15.08623304268771]}}, {"type": "Feature", "properties": {"norad_id": 40001, "name": "COSMOS 2500 (755)", "group": "gnss", "lat": 65.0432785412935, "lon": 40.30040907824319, "alt_km": 19136.125291560944, "timestamp": "2025-12-22T05:49:03.741722+00:00", "meta": {"OBJECT_NAME": "COSMOS 2500 (755)", "OBJECT_ID": "2014-032A", "EPOCH": "2025-12-21T04:35:55.026240", "MEAN_MOTION": 2.13106227, "ECCENTRICITY": 0.00077299, "INCLINATION": 65.3386, "RA_OF_ASC_NODE": 319.7453, "ARG_OF_PERICENTER": 219.3736, "MEAN_ANOMALY": 140.5635, "EPHEMERIS_TYPE": 0, "CLASSIFICATION_TYPE": "U", "NORAD_CAT_ID": 40001, "ELEMENT_SET_NO": 999, "REV_AT_EPOCH": 8966, "BSTAR": 0, "MEAN_MOTION_DOT": -4.7e-07, "MEAN_MOTION_DDOT": 0}, "tle": {"line1": "1 40001U 14032A   25355.19160910 -.00000047  00000+0  00000+0 0  9992", "line2": "2 40001  65.3386 319.7453 0007729 219.3736 140.5635  2.13106227 89663"}}, "geometry": {"type": "Point", "coordinates": [40.30040907824319, 65.0432785412935]}}, {"type": "Feature", "properties": {"norad_id": 40105, "name": "GPS BIIF-7  (PRN 09)", "group": "gnss", "lat": 34.43571460080248, "lon": -112.86885847047893, "alt_km": 20094.486887397503, "timestamp": "2025-12-22T05:49:03.741736+00:00", "meta": {"OBJECT_NAME": "GPS BIIF-7  (PRN 09)", "OBJECT_ID": "2014-045A", "EPOCH": "2025-12-21T13:19:50.036736", "MEAN_MOTION": 2.00573131, "ECCENTRICITY": 0.0032463, "INCLINATION": 55.2342, "RA_OF_ASC_NODE": 95.5472, "ARG_OF_PERICENTER": 120.1198, "MEAN_ANOMALY": 240.2018, "EPHEMERIS_TYPE": 0, "CLASSIFICATION_TYPE": "U", "NORAD_CAT_ID": 40105, "ELEMENT_SET_NO": 999, "REV_AT_EPOCH": 8251, "BSTAR": 0, "MEAN_MOTION_DOT": -7e-08, "MEAN_MOTION_DDOT": 0}, "tle": {"line1": "1 40105U 14045A   25355.55544024 -.00000007  00000+0  00000+0 0  9999", "line2": "2 40105  55.2342  95.5472 0032463 120.1198 240.2018  2.00573131 82510"}}, "geometry": {"type": "Point", "coordinates": [-112.86885847047893, 34.43571460080248]}}, {"type": "Feature", "properties": {"norad_id": 40128, "name": "GSAT0201 (GALILEO 5)", "group": "gnss", "lat": 48.88910615470879, "lon": 3.826625005302614, "alt_km": 20604.741635635062, "timestamp": "2025-12-22T05:49:03.741750+00:00", "meta": {"OBJECT_NAME": "GSAT0201 (GALILEO 5)", "OBJECT_ID": "2014-050A", "EPOCH": "2025-12-21T00:18:08.005824", "MEAN_MOTION": 1.85519694, "ECCENTRICITY": 0.16487459, "INCLINATION": 49.0672, "RA_OF_ASC_NODE": 280.7264, "ARG_OF_PERICENTER": 172.5923, "MEAN_ANOMALY": 190.2386, "EPHEMERIS_TYPE": 0, "CLASSIFICATION_TYPE": "U", "NORAD_CAT_ID": 40128, "ELEMENT_SET_NO": 999, "REV_AT_EPOCH": 7501, "BSTAR": 0, "MEAN_MOTION_DOT": -4.1e-07, "MEAN_MOTION_DDOT": 0}, "tle": {"line1": "1 40128U 14050A   25355.01259266 -.00000041  00000+0  00000+0 0  9990", "line2": "2 40128  49.0672 280.7264 1648745 172.5923 190.2386  1.85519694 75018"}}, "geometry": {"type": "Point", "coordinates": [3.826625005302614, 48.88910615470879]}}, {"type": "Feature", "properties": {"norad_id": 40129, "name": "GSAT0202 (GALILEO 6)", "group": "gnss", "lat": -36.794008649001654, "lon": -120.61701072558257, "alt_km": 24386.743815366593, "timestamp": "2025-12-22T05:49:03.741761+00:00", "meta": {"OBJECT_NAME": "GSAT0202 (GALILEO 6)", "OBJECT_ID": "2014-050B", "EPOCH": "2025-12-18T13:46:22.484640", "MEAN_MOTION": 1.85520466, "ECCENTRICITY": 0.16491259, "INCLINATION": 49.0858, "RA_OF_ASC_NODE": 279.9095, "ARG_OF_PERICENTER": 173.2442, "MEAN_ANOMALY": 189.3393, "EPHEMERIS_TYPE": 0, "CLASSIFICATION_TYPE": "U", "NORAD_CAT_ID": 40129, "ELEMENT_SET_NO": 999, "REV_AT_EPOCH": 7713, "BSTAR": 0, "MEAN_MOTION_DOT": -5.9e-07, "MEAN_MOTION_DDOT": 0}, "tle": {"line1": "1 40129U 14050B   25352.57387135 -.00000059  00000+0  00000+0 0  9995", "line2": "2 40129  49.0858 279.9095 1649125 173.2442 189.3393  1.85520466 77135"}}, "geometry": {"type": "Point", "coordinates": [-120.61701072558257, -36.794008649001654]}}, {"type": "Feature", "properties": {"norad_id": 40269, "name": "IRNSS-1C", "group": "gnss", "lat": 1.1388385999340727, "lon": -98.5798296610663, "alt_km": 35860.240550323535, "timestamp": "2025-12-22T05:49:03.741773+00:00", "meta": {"OBJECT_NAME": "IRNSS-1C", "OBJECT_ID": "2014-061A", "EPOCH": "2025-12-21T18:17:28.513248", "MEAN_MOTION": 1.0027378, "ECCENTRICITY": 0.0018068, "INCLINATION": 6.0646, "RA_OF_ASC_NODE": 92.4409, "ARG_OF_PERICENTER": 1.1419, "MEAN_ANOMALY": 354.3574, "EPHEMERIS_TYPE": 0, "CLASSIFICATION_TYPE": "U", "NORAD_CAT_ID": 40269, "ELEMENT_SET_NO": 999, "REV_AT_EPOCH": 4090, "BSTAR": 0, "MEAN_MOTION_DOT": -1.44e-06, "MEAN_MOTION_DDOT": 0}, "tle": {"line1": "1 40269U 14061A   25355.76213557 -.00000144  00000+0  00000+0 0  9997", "line2": "2 40269   6.0646  92.4409 0018068   1.1419 354.3574  1.00273780 40904"}}, "geometry": {"type": "Point", "coordinates": [-98.5798296610663, 1.1388385999340727]}}, {"type": "Feature", "properties": {"norad_id": 40294, "name": "GPS BIIF-8  (PRN 03)", "group": "gnss", "lat": -36.22699375911112, "lon": -113.62885868637296, "alt_km": 20334.08428294215, "timestamp": "2025-12-22T05:49:03.741784+00:00", "meta": {"OBJECT_NAME": "GPS BIIF-8  (PRN 03)", "OBJECT_ID": "2014-068A", "EPOCH": "2025-12-21T10:24:33.832224", "MEAN_MOTION": 2.00565456, "ECCENTRICITY": 0.00608151, "INCLINATION": 56.8641, "RA_OF_ASC_NODE": 37.8098, "ARG_OF_PERICENTER": 69.0115, "MEAN_ANOMALY": 291.7086, "EPHEMERIS_TYPE": 0, "CLASSIFICATION_TYPE": "U", "NORAD_CAT_ID": 40294, "ELEMENT_SET_NO": 999, "REV_AT_EPOCH": 8164, "BSTAR": 0, "MEAN_MOTION_DOT": -5.2e-07, "MEAN_MOTION_DDOT": 0}, "tle": {"line1": "1 40294U 14068A   25355.43372491 -.00000052  00000+0  00000+0 0  9997", "line2": "2 40294  56.8641  37.8098 0060815  69.0115 291.7086  2.00565456 81643"}}, "geometry": {"type": "Point", "coordinates": [-113.62885868637296, -36.22699375911112]}}]}